[{"OBJECT_NAME":"STARLINK-6054","OBJECT_ID":"2023-064T","EPOCH":"2026-03-09T19:26:06.901440","MEAN_MOTION":14.9832823,"ECCENTRICITY":0.000296,"INCLINATION":69.9997,"RA_OF_ASC_NODE":103.9981,"ARG_OF_PERICENTER":271.5025,"MEAN_ANOMALY":88.5795,"EPHEMERIS_TYPE":0,"CLASSIFICATION_TYPE":"U","NORAD_CAT_ID":56465,"ELEMENT_SET_NO":999,"REV_AT_EPOCH":15625,"BSTAR":-1.4506663e-5,"MEAN_MOTION_DOT":-2.66e-6,"MEAN_MOTION_DDOT":0},{"OBJECT_NAME":"KSLV-II R\/B","OBJECT_ID":"2025-274P","EPOCH":"2026-03-09T17:44:44.185056","MEAN_MOTION":14.98166503,"ECCENTRICITY":0.00605567,"INCLINATION":97.7452,"RA_OF_ASC_NODE":0.3618,"ARG_OF_PERICENTER":19.961,"MEAN_ANOMALY":340.3962,"EPHEMERIS_TYPE":0,"CLASSIFICATION_TYPE":"U","NORAD_CAT_ID":66663,"ELEMENT_SET_NO":999,"REV_AT_EPOCH":1543,"BSTAR":0.00059831331,"MEAN_MOTION_DOT":7.309e-5,"MEAN_MOTION_DDOT":0}]
